      2.10          N: GNSS NAV DATA                        RINEX VERSION / TYPE
fic2rin                                 12/31/2018 00:20:02 PGM / RUN BY / DATE
                                                            END OF HEADER
30 18 12 30 18  0  0.0-2.798624336720e-05-6.025402399246e-12 0.000000000000e+00
    9.000000000000e+01 7.706250000000e+01 5.062710882229e-09 5.004611647535e-01
    3.961846232414e-06 3.568044747226e-03 7.385388016701e-06 5.153646699905e+03
    6.480000000000e+04-3.725290298462e-08 2.835317160260e+00-2.421438694000e-08
    9.424265758040e-01 2.233125000000e+02-3.004994531455e+00-8.425350949686e-09
    2.642967233051e-11 1.000000000000e+00 2.034000000000e+03 0.000000000000e+00
    2.400000000000e+00 0.000000000000e+00 3.725290298462e-09 9.000000000000e+01
    5.760600000000e+04 4.000000000000e+00
18 18 12 30 18  0  0.0 1.086806878448e-05 3.865352482535e-12 0.000000000000e+00
    5.300000000000e+01 3.218750000000e+00 4.802700051735e-09 9.227267644163e-01
    5.960464477539e-08 1.495804276783e-02 8.026137948036e-06 5.153608232498e+03
    6.480000000000e+04-1.825392246246e-07-3.989383453834e-01-3.725290298462e-08
    9.526098461495e-01 2.223437500000e+02 1.367444396896e+00-8.501782704804e-09
    3.589435228671e-10 1.000000000000e+00 2.034000000000e+03 0.000000000000e+00
    2.400000000000e+00 0.000000000000e+00-6.519258022308e-09 5.300000000000e+01
    5.760600000000e+04 4.000000000000e+00
12 18 12 30 18  0  0.0 2.803485840559e-04-3.069544618484e-12 0.000000000000e+00
    7.100000000000e+01-8.750000000000e-01 4.204818004690e-09-1.615297206355e-01
   -7.264316082001e-08 7.229178561829e-03 4.628673195839e-06 5.153723981857e+03
    6.480000000000e+04-4.097819328308e-08-2.381462328711e+00 6.705522537231e-08
    9.845208761263e-01 3.023750000000e+02 1.022605240459e+00-8.202484523547e-09
   -2.446530479243e-10 1.000000000000e+00 2.034000000000e+03 0.000000000000e+00
    2.400000000000e+00 0.000000000000e+00-1.257285475731e-08 7.100000000000e+01
    5.760600000000e+04 4.000000000000e+00
26 18 12 30 18  0  0.0 8.252169936895e-05 1.068656274583e-11 0.000000000000e+00
    6.000000000000e+01-4.562500000000e+00 4.854845080927e-09-1.117819507955e+00
   -2.458691596985e-07 3.451969241723e-03 4.412606358528e-06 5.153771018982e+03
    6.480000000000e+04-3.725290298462e-08-2.469806380344e+00-4.470348358154e-08
    9.534673838580e-01 2.912812500000e+02 7.413269926163e-02-8.431779788901e-09
   -2.246522148093e-10 1.000000000000e+00 2.034000000000e+03 0.000000000000e+00
    2.400000000000e+00 0.000000000000e+00 7.450580596924e-09 6.000000000000e+01
    5.760600000000e+04 4.000000000000e+00
 2 18 12 30 17 59 44.0-9.988155215979e-05-1.023181539495e-11 0.000000000000e+00
    4.000000000000e+00-6.625000000000e+00 4.634835916663e-09 1.460179285963e+00
   -5.066394805908e-07 1.867655094247e-02 8.136034011841e-06 5.153626319885e+03
    6.478400000000e+04-3.613531589508e-07-4.126803073227e-01-4.023313522339e-07
    9.532320076536e-01 2.196562500000e+02-1.797756985189e+00-8.292131114830e-09
    4.075169747177e-10 1.000000000000e+00 2.034000000000e+03 0.000000000000e+00
    2.400000000000e+00 0.000000000000e+00-2.048909664154e-08 4.000000000000e+00
    5.781600000000e+04 4.000000000000e+00
10 18 12 30 17 59 44.0 1.436867751181e-04-6.025402399246e-12 0.000000000000e+00
    8.000000000000e+00-3.712500000000e+01 4.797699843456e-09-8.526582505358e-01
   -1.922249794006e-06 4.155527683906e-03 6.407499313354e-06 5.153657430649e+03
    6.478400000000e+04 5.774199962616e-08 6.918869344280e-01 1.862645149231e-08
    9.621141074573e-01 2.544375000000e+02-2.799048332855e+00-8.198555788471e-09
   -5.000208278745e-12 1.000000000000e+00 2.034000000000e+03 0.000000000000e+00
    2.400000000000e+00 0.000000000000e+00 1.862645149231e-09 8.000000000000e+00
    5.859600000000e+04 4.000000000000e+00
13 18 12 30 17 59 44.0-7.993448525667e-05 1.250555214938e-12 0.000000000000e+00
    8.000000000000e+00 6.625000000000e+00 4.351252675711e-09 2.186203090465e+00
    3.352761268616e-07 3.724145703018e-03 1.072697341442e-05 5.153668361664e+03
    6.478400000000e+04 2.421438694000e-08 1.863238013262e+00-5.774199962616e-08
    9.677587666257e-01 1.768437500000e+02 1.389795472274e+00-7.792824602424e-09
   -1.335769925893e-10 1.000000000000e+00 2.034000000000e+03 0.000000000000e+00
    2.400000000000e+00 0.000000000000e+00-1.117587089539e-08 8.000000000000e+00
    6.072600000000e+04 4.000000000000e+00
 4 18 12 30 18  0  0.0-1.201364211738e-04-1.466560206609e-11 0.000000000000e+00
    4.600000000000e+01-4.556250000000e+01 4.240890935844e-09-2.792436610228e+00
   -2.404674887657e-06 1.385296345688e-02 9.315088391304e-06 5.153678361893e+03
    6.480000000000e+04-7.450580596924e-09-1.501348685588e+00-1.788139343262e-07
    9.587394831420e-01 1.976250000000e+02 5.848741229034e-01-7.890328663860e-09
   -7.821754378894e-11 1.000000000000e+00 2.034000000000e+03 0.000000000000e+00
    2.400000000000e+00 6.300000000000e+01-5.587935447693e-09 4.600000000000e+01
    6.318600000000e+04 4.000000000000e+00
13 18 12 30 19 59 44.0-7.992563769221e-05 1.250555214938e-12 0.000000000000e+00
    9.000000000000e+00 2.312500000000e+00 4.332680473533e-09-3.046649142971e+00
    3.539025783539e-08 3.724169684574e-03 1.100264489651e-05 5.153667888641e+03
    7.198400000000e+04 3.911554813385e-08 1.863181946927e+00-2.793967723846e-08
    9.677578171919e-01 1.705000000000e+02 1.389646074691e+00-7.787110078677e-09
   -1.275053111080e-10 1.000000000000e+00 2.034000000000e+03 0.000000000000e+00
    2.400000000000e+00 0.000000000000e+00-1.117587089539e-08 9.000000000000e+00
    6.480600000000e+04 4.000000000000e+00
10 18 12 30 19 59 44.0 1.436439342797e-04-6.025402399246e-12 0.000000000000e+00
    3.100000000000e+01-3.462500000000e+01 4.769841540189e-09 1.975936663636e-01
   -1.784414052963e-06 4.156725946814e-03 6.064772605896e-06 5.153659738541e+03
    7.198400000000e+04 1.862645149231e-09 6.918277008750e-01 3.725290298462e-08
    9.621138031703e-01 2.630000000000e+02-2.799108012598e+00-8.253915237271e-09
   -9.286101089098e-12 1.000000000000e+00 2.034000000000e+03 0.000000000000e+00
    2.400000000000e+00 0.000000000000e+00 1.862645149231e-09 3.100000000000e+01
    6.480600000000e+04 4.000000000000e+00
 2 18 12 30 20  0  0.0-9.995559230447e-05-1.023181539495e-11 0.000000000000e+00
    5.000000000000e+00-7.906250000000e+00 4.441970740197e-09 2.512778253037e+00
   -4.395842552185e-07 1.867689471692e-02 8.191913366318e-06 5.153624313354e+03
    7.200000000000e+04 1.713633537292e-07-4.127373816086e-01-1.993030309677e-07
    9.532371819948e-01 2.119062500000e+02-1.797811857783e+00-7.756037355802e-09
    3.553719455251e-10 1.000000000000e+00 2.034000000000e+03 0.000000000000e+00
    2.400000000000e+00 0.000000000000e+00-2.048909664154e-08 5.000000000000e+00
    6.480600000000e+04 4.000000000000e+00
 1 18 12 30 20  0  0.0-1.372611150146e-04-6.139089236967e-12 0.000000000000e+00
    5.300000000000e+01 7.125000000000e+00 4.197317692272e-09 2.182205520522e+00
    3.650784492493e-07 8.236452005804e-03 8.013099431992e-06 5.153660785675e+03
    7.200000000000e+04-9.499490261078e-08-3.471005556857e-01-1.285225152969e-07
    9.741552062288e-01 2.319375000000e+02 6.911010621504e-01-7.929258856887e-09
    4.489472718845e-10 1.000000000000e+00 2.034000000000e+03 0.000000000000e+00
    2.400000000000e+00 0.000000000000e+00 5.587935447693e-09 5.300000000000e+01
    6.480600000000e+04 4.000000000000e+00
 3 18 12 30 20  0  0.0 1.737284474075e-04 2.842170943040e-12 0.000000000000e+00
    6.200000000000e+01-3.621875000000e+01 4.781270587683e-09 1.090878727523e+00
   -2.084299921989e-06 1.885764533654e-03 6.331130862236e-06 5.153605514526e+03
    7.200000000000e+04 3.725290298462e-09 6.951458009614e-01 5.401670932770e-08
    9.620607621495e-01 2.565312500000e+02 6.937029058419e-01-8.236414508296e-09
   -3.535861568541e-11 1.000000000000e+00 2.034000000000e+03 0.000000000000e+00
    2.400000000000e+00 0.000000000000e+00 2.328306436539e-09 6.200000000000e+01
    6.480600000000e+04 4.000000000000e+00
16 18 12 30 20  0  0.0-9.749084711075e-06-2.273736754432e-12 0.000000000000e+00
    3.700000000000e+01-9.375000000000e+00 4.173388124081e-09-9.913700815603e-01
   -4.675239324570e-07 1.034949324094e-02 4.807487130165e-06 5.153747817993e+03
    7.200000000000e+04 1.993030309677e-07-2.362609577612e+00 2.793967723846e-08
    9.848925465564e-01 2.980937500000e+02 5.240771595630e-01-8.083193840326e-09
   -2.610823036973e-10 1.000000000000e+00 2.034000000000e+03 0.000000000000e+00
    2.400000000000e+00 0.000000000000e+00-1.071020960808e-08 3.700000000000e+01
    6.480600000000e+04 4.000000000000e+00
27 18 12 30 20  0  0.0-4.073744639754e-05-6.252776074689e-12 0.000000000000e+00
    4.100000000000e+01-4.378125000000e+01 3.888733409927e-09-1.910184445661e+00
   -2.279877662659e-06 6.370866321959e-03 9.136274456978e-06 5.153705303192e+03
    7.200000000000e+04-2.421438694000e-08-1.402937320348e+00-8.009374141693e-08
    9.781185190195e-01 2.132500000000e+02 4.256767705976e-01-7.756394513536e-09
   -7.107438910502e-11 1.000000000000e+00 2.034000000000e+03 0.000000000000e+00
    2.400000000000e+00 0.000000000000e+00 1.862645149231e-09 4.100000000000e+01
    6.480600000000e+04 4.000000000000e+00
24 18 12 30 20  0  0.0-6.017461419106e-05-4.547473508865e-13 0.000000000000e+00
    4.300000000000e+01 8.262500000000e+01 5.029852370683e-09 2.530834772935e+00
    4.252418875694e-06 7.986435899511e-03 8.374452590942e-06 5.153739133835e+03
    7.200000000000e+04-1.545995473862e-07 2.741473146686e+00-1.303851604462e-07
    9.399886740270e-01 2.059062500000e+02 5.717450153834e-01-8.198912946205e-09
    1.314340461842e-10 1.000000000000e+00 2.034000000000e+03 0.000000000000e+00
    2.400000000000e+00 0.000000000000e+00 2.793967723846e-09 4.300000000000e+01
    6.480600000000e+04 4.000000000000e+00
